QIANFAN-33              
1 61566U 24185Q   25246.80545290  .00000579  00000+0  40993-3 0  9994
2 61566  88.9741  89.9641 0004840 283.7141  76.3497 13.96426859 55214
QIANFAN-34              
1 61567U 24185R   25246.82368116  .00000572  00000+0  36527-3 0  9998
2 61567  88.9718  89.6578 0003856 293.9667  66.1109 14.02179062 55358
QIANFAN-35              
1 61568U 24185S   25246.76199129  .00001397  00000+0  56096-3 0  9997
2 61568  88.9744  88.6287 0004506 249.4797 110.5914 14.27704513 55919
QIANFAN-36              
1 61569U 24185T   25246.79757666  .00000176  00000+0  23608-3 0  9994
2 61569  88.9728  91.4696 0005646 351.4975   8.6083 13.55550386 54387
QIANFAN-37              
1 62238U 24232B   25246.70881539  .00000103  00000+0  14053-3 0  9993
2 62238  88.9944  51.4264 0002295  78.2299 281.9109 13.50961644 85666
QIANFAN-38              
1 62239U 24232C   25246.73369426  .00000088  00000+0  11775-3 0  9993
2 62239  88.9951  51.3328 0016270 120.9462 239.3290 13.50965651 85727
QIANFAN-39              
1 62240U 24232D   25246.73238906  .00000312  00000+0  12625-3 0  9998
2 62240  88.9953  48.7422 0017831  51.7941 308.4854 14.25240046 87142
QIANFAN-40              
1 62241U 24232E   25246.76660344  .00000064  00000+0  79680-4 0  9996
2 62241  88.9979  50.8858 0015173 127.7297 232.5232 13.50962093 86093
